SHIYAN-1 (SY-1)         
1 28220U 04012A   26068.73650539  .00016393  00000+0  54854-3 0  9991
2 28220  97.8764 140.5238 0005873  23.6952 336.4557 15.31043463195862
STARLINK-30829          
1 58158U 23166J   26068.67644554  .00007154  00000+0  25314-3 0  9992
2 58158  53.1604 219.9289 0001359 111.1626 248.9520 15.30237339133175
